start=new Date('2023-05-08T00:00:00.000Z').valueOf();
sats=[{"TLE_LINE1":"1 56346U 23058AF  23127.91667824 -.00813609  00000-0 -86243-2 0  9994","CENTER_NAME":"EARTH","FILE":"3903413","MEAN_ANOMALY":"12.1104","MEAN_ELEMENT_THEORY":"SGP4","MEAN_MOTION_DDOT":"0.0000000000000","RA_OF_ASC_NODE":"127.4730","BSTAR":"-0.00862430000000","DECAY_DATE":null,"GP_ID":"231433554","MEAN_MOTION":"15.66516043","PERIAPSIS":"367.863","CLASSIFICATION_TYPE":"U","ELEMENT_SET_NO":"999","NORAD_CAT_ID":"56346","EPHEMERIS_TYPE":"0","SEMIMAJOR_AXIS":"6747.019","SITE":"AFWTR","EPOCH":"2023-05-07T22:00:00.999936","TIME_SYSTEM":"UTC","REV_AT_EPOCH":"130","MEAN_MOTION_DOT":"-0.00813609","RCS_SIZE":null,"OBJECT_TYPE":"PAYLOAD","REF_FRAME":"TEME","LAUNCH_DATE":"2023-04-27","APOAPSIS":"369.906","ECCENTRICITY":"0.00015140","PERIOD":"91.924","INCLINATION":"97.6639","COUNTRY_CODE":"US","OBJECT_NAME":"STARLINK-5837","OBJECT_ID":"2023-058AF","TLE_LINE2":"2 56346  97.6639 127.4730 0001514  87.2412  12.1104 15.66516043  1305","ARG_OF_PERICENTER":"87.2412"},{"LAUNCH_DATE":"2023-04-27","OBJECT_TYPE":"PAYLOAD","REF_FRAME":"TEME","TLE_LINE2":"2 56347  97.6635 127.4736 0001510  92.5649   7.9065 15.66548611  1309","ARG_OF_PERICENTER":"92.5649","ECCENTRICITY":"0.00015100","APOAPSIS":"369.809","OBJECT_ID":"2023-058AG","COUNTRY_CODE":"US","INCLINATION":"97.6635","OBJECT_NAME":"STARLINK-5829","PERIOD":"91.922","EPOCH":"2023-05-07T22:00:00.999936","SITE":"AFWTR","TIME_SYSTEM":"UTC","EPHEMERIS_TYPE":"0","SEMIMAJOR_AXIS":"6746.926","MEAN_MOTION_DOT":"-0.00813697","RCS_SIZE":null,"REV_AT_EPOCH":"130","BSTAR":"-0.00861400000000","DECAY_DATE":null,"RA_OF_ASC_NODE":"127.4736","NORAD_CAT_ID":"56347","MEAN_MOTION":"15.66548611","GP_ID":"231433470","ELEMENT_SET_NO":"999","CLASSIFICATION_TYPE":"U","PERIAPSIS":"367.772","TLE_LINE1":"1 56347U 23058AG  23127.91667824 -.00813697  00000-0 -86140-2 0  9998","CENTER_NAME":"EARTH","MEAN_ELEMENT_THEORY":"SGP4","MEAN_MOTION_DDOT":"0.0000000000000","FILE":"3903413","MEAN_ANOMALY":"7.9065"},{"LAUNCH_DATE":"2023-04-27","REF_FRAME":"TEME","OBJECT_TYPE":"PAYLOAD","ARG_OF_PERICENTER":"90.0768","TLE_LINE2":"2 56348  97.6631 127.4733 0001513  90.0768   9.8376 15.66531951  1306","COUNTRY_CODE":"US","INCLINATION":"97.6631","OBJECT_NAME":"STARLINK-5888","OBJECT_ID":"2023-058AH","PERIOD":"91.923","APOAPSIS":"369.859","ECCENTRICITY":"0.00015130","TIME_SYSTEM":"UTC","EPOCH":"2023-05-07T22:00:00.999936","SITE":"AFWTR","SEMIMAJOR_AXIS":"6746.973","EPHEMERIS_TYPE":"0","MEAN_MOTION_DOT":"-0.00813097","RCS_SIZE":null,"REV_AT_EPOCH":"130","DECAY_DATE":null,"BSTAR":"-0.00861280000000","RA_OF_ASC_NODE":"127.4733","NORAD_CAT_ID":"56348","ELEMENT_SET_NO":"999","PERIAPSIS":"367.818","CLASSIFICATION_TYPE":"U","MEAN_MOTION":"15.66531951","GP_ID":"231433415","TLE_LINE1":"1 56348U 23058AH  23127.91667824 -.00813097  00000-0 -86128-2 0  9999","CENTER_NAME":"EARTH","MEAN_MOTION_DDOT":"0.0000000000000","MEAN_ELEMENT_THEORY":"SGP4","MEAN_ANOMALY":"9.8376","FILE":"3903413"},{"MEAN_ANOMALY":"16.2252","FILE":"3903413","MEAN_MOTION_DDOT":"0.0000000000000","MEAN_ELEMENT_THEORY":"SGP4","TLE_LINE1":"1 56349U 23058AJ  23127.91667824 -.00815342  00000-0 -86205-2 0  9991","CENTER_NAME":"EARTH","CLASSIFICATION_TYPE":"U","PERIAPSIS":"367.627","ELEMENT_SET_NO":"999","GP_ID":"231433499","MEAN_MOTION":"15.66584340","NORAD_CAT_ID":"56349","RA_OF_ASC_NODE":"127.4741","BSTAR":"-0.00862050000000","DECAY_DATE":null,"REV_AT_EPOCH":"130","RCS_SIZE":null,"MEAN_MOTION_DOT":"-0.00815342","SEMIMAJOR_AXIS":"6746.823","EPHEMERIS_TYPE":"0","TIME_SYSTEM":"UTC","SITE":"AFWTR","EPOCH":"2023-05-07T22:00:00.999936","PERIOD":"91.920","COUNTRY_CODE":"US","INCLINATION":"97.6639","OBJECT_ID":"2023-058AJ","OBJECT_NAME":"STARLINK-5887","APOAPSIS":"369.749","ECCENTRICITY":"0.00015720","ARG_OF_PERICENTER":"85.3627","TLE_LINE2":"2 56349  97.6639 127.4741 0001572  85.3627  16.2252 15.66584340  1305","REF_FRAME":"TEME","OBJECT_TYPE":"PAYLOAD","LAUNCH_DATE":"2023-04-27"},{"CLASSIFICATION_TYPE":"U","PERIAPSIS":"367.724","ELEMENT_SET_NO":"999","GP_ID":"231433443","MEAN_MOTION":"15.66564356","NORAD_CAT_ID":"56350","RA_OF_ASC_NODE":"127.4738","DECAY_DATE":null,"BSTAR":"-0.00860240000000","MEAN_ANOMALY":"9.5796","FILE":"3903413","MEAN_MOTION_DDOT":"0.0000000000000","MEAN_ELEMENT_THEORY":"SGP4","TLE_LINE1":"1 56350U 23058AK  23127.91667824 -.00813172  00000-0 -86024-2 0  9991","CENTER_NAME":"EARTH","PERIOD":"91.921","INCLINATION":"97.6634","COUNTRY_CODE":"US","OBJECT_NAME":"STARLINK-5886","OBJECT_ID":"2023-058AK","APOAPSIS":"369.767","ECCENTRICITY":"0.00015140","ARG_OF_PERICENTER":"91.4600","TLE_LINE2":"2 56350  97.6634 127.4738 0001514  91.4600   9.5796 15.66564356  1306","REF_FRAME":"TEME","OBJECT_TYPE":"PAYLOAD","LAUNCH_DATE":"2023-04-27","REV_AT_EPOCH":"130","RCS_SIZE":null,"MEAN_MOTION_DOT":"-0.00813172","SEMIMAJOR_AXIS":"6746.880","EPHEMERIS_TYPE":"0","TIME_SYSTEM":"UTC","SITE":"AFWTR","EPOCH":"2023-05-07T22:00:00.999936"},{"OBJECT_TYPE":"PAYLOAD","REF_FRAME":"TEME","LAUNCH_DATE":"2023-04-27","APOAPSIS":"369.695","ECCENTRICITY":"0.00015130","PERIOD":"91.919","INCLINATION":"97.6633","COUNTRY_CODE":"US","OBJECT_NAME":"STARLINK-5891","OBJECT_ID":"2023-058AL","TLE_LINE2":"2 56351  97.6633 127.4742 0001513  90.3882  11.4873 15.66589061  1308","ARG_OF_PERICENTER":"90.3882","EPHEMERIS_TYPE":"0","SEMIMAJOR_AXIS":"6746.810","SITE":"AFWTR","EPOCH":"2023-05-07T22:00:00.999936","TIME_SYSTEM":"UTC","REV_AT_EPOCH":"130","RCS_SIZE":null,"MEAN_MOTION_DOT":"-0.00813687","RA_OF_ASC_NODE":"127.4742","DECAY_DATE":null,"BSTAR":"-0.00859980000000","GP_ID":"231433360","MEAN_MOTION":"15.66589061","CLASSIFICATION_TYPE":"U","PERIAPSIS":"367.654","ELEMENT_SET_NO":"999","NORAD_CAT_ID":"56351","CENTER_NAME":"EARTH","TLE_LINE1":"1 56351U 23058AL  23127.91667824 -.00813687  00000-0 -85998-2 0  9992","FILE":"3903413","MEAN_ANOMALY":"11.4873","MEAN_ELEMENT_THEORY":"SGP4","MEAN_MOTION_DDOT":"0.0000000000000"},{"MEAN_MOTION_DOT":"-0.00813567","RCS_SIZE":null,"REV_AT_EPOCH":"130","SITE":"AFWTR","EPOCH":"2023-05-07T22:00:00.999936","TIME_SYSTEM":"UTC","EPHEMERIS_TYPE":"0","SEMIMAJOR_AXIS":"6746.903","TLE_LINE2":"2 56352  97.6637 127.4737 0001517  90.7293  10.0271 15.66556542  1306","ARG_OF_PERICENTER":"90.7293","APOAPSIS":"369.791","ECCENTRICITY":"0.00015170","PERIOD":"91.921","COUNTRY_CODE":"US","OBJECT_NAME":"STARLINK-5885","INCLINATION":"97.6637","OBJECT_ID":"2023-058AM","LAUNCH_DATE":"2023-04-27","OBJECT_TYPE":"PAYLOAD","REF_FRAME":"TEME","MEAN_ELEMENT_THEORY":"SGP4","MEAN_MOTION_DDOT":"0.0000000000000","FILE":"3903413","MEAN_ANOMALY":"10.0271","TLE_LINE1":"1 56352U 23058AM  23127.91667824 -.00813567  00000-0 -86097-2 0  9991","CENTER_NAME":"EARTH","NORAD_CAT_ID":"56352","GP_ID":"231433527","MEAN_MOTION":"15.66556542","PERIAPSIS":"367.744","CLASSIFICATION_TYPE":"U","ELEMENT_SET_NO":"999","BSTAR":"-0.00860970000000","DECAY_DATE":null,"RA_OF_ASC_NODE":"127.4737"},{"EPOCH":"2023-05-07T22:00:00.999936","SITE":"AFWTR","TIME_SYSTEM":"UTC","EPHEMERIS_TYPE":"0","SEMIMAJOR_AXIS":"6746.592","RCS_SIZE":null,"MEAN_MOTION_DOT":"-0.00815392","REV_AT_EPOCH":"130","LAUNCH_DATE":"2023-04-27","OBJECT_TYPE":"PAYLOAD","REF_FRAME":"TEME","TLE_LINE2":"2 56353  97.6640 127.4754 0001582  85.6798  18.7212 15.66664965  1304","ARG_OF_PERICENTER":"85.6798","APOAPSIS":"369.524","ECCENTRICITY":"0.00015820","COUNTRY_CODE":"US","OBJECT_NAME":"STARLINK-5874","INCLINATION":"97.6640","OBJECT_ID":"2023-058AN","PERIOD":"91.915","CENTER_NAME":"EARTH","TLE_LINE1":"1 56353U 23058AN  23127.91667824 -.00815392  00000-0 -85930-2 0  9995","MEAN_ELEMENT_THEORY":"SGP4","MEAN_MOTION_DDOT":"0.0000000000000","FILE":"3903413","MEAN_ANOMALY":"18.7212","BSTAR":"-0.00859300000000","DECAY_DATE":null,"RA_OF_ASC_NODE":"127.4754","NORAD_CAT_ID":"56353","MEAN_MOTION":"15.66664965","GP_ID":"231433388","ELEMENT_SET_NO":"999","PERIAPSIS":"367.389","CLASSIFICATION_TYPE":"U"},{"GP_ID":"231433555","MEAN_MOTION":"15.66572730","PERIAPSIS":"367.698","CLASSIFICATION_TYPE":"U","ELEMENT_SET_NO":"999","NORAD_CAT_ID":"56354","RA_OF_ASC_NODE":"127.4740","DECAY_DATE":null,"BSTAR":"-0.00860140000000","FILE":"3903413","MEAN_ANOMALY":"8.8402","MEAN_ELEMENT_THEORY":"SGP4","MEAN_MOTION_DDOT":"0.0000000000000","TLE_LINE1":"1 56354U 23058AP  23127.91667824 -.00813337  00000-0 -86014-2 0  9997","CENTER_NAME":"EARTH","ECCENTRICITY":"0.00015170","APOAPSIS":"369.745","PERIOD":"91.920","COUNTRY_CODE":"US","INCLINATION":"97.6639","OBJECT_ID":"2023-058AP","OBJECT_NAME":"STARLINK-5877","TLE_LINE2":"2 56354  97.6639 127.4740 0001517  92.4726   8.8402 15.66572730  1302","ARG_OF_PERICENTER":"92.4726","OBJECT_TYPE":"PAYLOAD","REF_FRAME":"TEME","LAUNCH_DATE":"2023-04-27","REV_AT_EPOCH":"130","MEAN_MOTION_DOT":"-0.00813337","RCS_SIZE":null,"EPHEMERIS_TYPE":"0","SEMIMAJOR_AXIS":"6746.856","SITE":"AFWTR","EPOCH":"2023-05-07T22:00:00.999936","TIME_SYSTEM":"UTC"},{"RCS_SIZE":null,"MEAN_MOTION_DOT":"-0.00815444","REV_AT_EPOCH":"130","SITE":"AFWTR","EPOCH":"2023-05-07T22:00:00.999936","TIME_SYSTEM":"UTC","EPHEMERIS_TYPE":"0","SEMIMAJOR_AXIS":"6746.706","TLE_LINE2":"2 56355  97.6640 127.4748 0001579  86.2910  16.6943 15.66625023  1308","ARG_OF_PERICENTER":"86.2910","APOAPSIS":"369.637","ECCENTRICITY":"0.00015790","PERIOD":"91.917","OBJECT_ID":"2023-058AQ","COUNTRY_CODE":"US","INCLINATION":"97.6640","OBJECT_NAME":"STARLINK-5533","LAUNCH_DATE":"2023-04-27","OBJECT_TYPE":"PAYLOAD","REF_FRAME":"TEME","MEAN_ELEMENT_THEORY":"SGP4","MEAN_MOTION_DDOT":"0.0000000000000","FILE":"3903413","MEAN_ANOMALY":"16.6943","TLE_LINE1":"1 56355U 23058AQ  23127.91667824 -.00815444  00000-0 -86075-2 0  9996","CENTER_NAME":"EARTH","NORAD_CAT_ID":"56355","GP_ID":"231433471","MEAN_MOTION":"15.66625023","CLASSIFICATION_TYPE":"U","PERIAPSIS":"367.506","ELEMENT_SET_NO":"999","BSTAR":"-0.00860750000000","DECAY_DATE":null,"RA_OF_ASC_NODE":"127.4748"}];
